IRIDIUM 166             
1 43570U 18061B   24088.58483538  .00000377  00000+0  12770-3 0  9997
2 43570  86.4000  35.4800 0002562  85.6284 274.5205 14.34221592297216
IRIDIUM 158             
1 43571U 18061C   24088.90197001  .00000044  00000+0  86570-5 0  9993
2 43571  86.4000  35.3566 0002301  81.3893 278.7563 14.34216225297226
IRIDIUM 165             
1 43572U 18061D   24089.20641875  .00000300  00000+0  10007-3 0  9996
2 43572  86.4003  35.2604 0002319  80.2672 279.8786 14.34217571297295
IRIDIUM 155             
1 43573U 18061E   24088.88928198  .00000153  00000+0  47725-4 0  9990
2 43573  86.3998  35.3022 0002432  86.0284 274.1190 14.34208618297213
IRIDIUM 154             
1 43574U 18061F   24088.94002297  .00000106  00000+0  30938-4 0  9997
2 43574  86.4007  35.3747 0002017  86.5750 273.5676 14.34220154297279
IRIDIUM 163             
1 43575U 18061G   24088.92099175  .00000304  00000+0  10135-3 0  9993
2 43575  86.4002  35.3235 0002193  87.4443 272.7003 14.34217093297241
IRIDIUM 156             
1 43576U 18061H   24088.89563065  .00000655  00000+0  22672-3 0  9992
2 43576  86.3997  35.3401 0002361  81.7784 278.3679 14.34217512297237
IRIDIUM 164             
1 43577U 18061J   24088.59751901  .00000447  00000+0  15262-3 0  9994
2 43577  86.4001  35.4924 0002145  80.7114 279.4324 14.34221370297238
